ICEYE-X43               
1 60539U 24149BZ  26196.78535385  .00000774  00000+0  67354-4 0  9997
2 60539  97.6799 273.3667 0006481 345.1881  14.9151 14.99787819104408
ICEYE-X40               
1 60549U 24149CK  26196.15704842  .00001435  00000+0  12621-3 0  9996
2 60549  97.6795 272.2031 0003997   6.4770 353.6503 14.98070105104261
ICEYE-X49               
1 62384U 24247H   26196.75051765  .00001785  00000+0  11212-3 0  9992
2 62384  44.9961 204.8204 0001176 234.5476 125.5292 15.13515356 86504
ICEYE-X47               
1 62389U 24247N   26196.46240217  .00001034  00000+0  70924-4 0  9990
2 62389  44.9961 205.9543 0001376 350.9145   9.1707 15.13485709 86466
ICEYE-X42               
1 62698U 25009CT  26196.77983689  .00001013  00000+0  10578-3 0  9996
2 62698  97.7389 274.5792 0001277  97.3161 262.8203 14.91855669 81552
ICEYE-X41               
1 62700U 25009CV  26196.74837973  .00001576  00000+0  14230-3 0  9994
2 62700  97.7060 275.8606 0000259 276.2390  83.8802 14.96914733 81684
ICEYE-X45               
1 62705U 25009DA  26196.79795297  .00004934  00000+0  39288-3 0  9997
2 62705  97.8415 283.7205 0001141  95.1486 264.9868 15.00845134 81972
ICEYE-X44               
1 62707U 25009DC  26196.77782001  .00001816  00000+0  16628-3 0  9995
2 62707  97.7059 275.4528 0002477  71.3952 288.7538 14.96170070104215
ICEYE-X48               
1 63253U 25052AV  26196.24379953  .00001772  00000+0  15447-3 0  9999
2 63253  97.6838  88.0002 0003984 104.2469 255.9196 14.98125864 72879
ICEYE-X46               
1 63258U 25052BA  26196.59413792  .00001023  00000+0  97838-4 0  9996
2 63258  97.6859  87.9393 0001714  81.7007 278.4408 14.95368332 72898
